CCSDS_OMM_VERS = 2.0
CREATION_DATE  = 
ORIGINATOR     = 

OBJECT_NAME    = STARLINK-36588
OBJECT_ID      = 2026-016N
CENTER_NAME    = EARTH
REF_FRAME      = TEME
TIME_SYSTEM    = UTC
MEAN_ELEMENT_THEORY = SGP/SGP4

EPOCH          = 2026-02-23T03:57:14.336064
MEAN_MOTION    = 15.75219779
ECCENTRICITY   = .00020134
INCLINATION    = 97.2845
RA_OF_ASC_NODE = 113.8849
ARG_OF_PERICENTER = 32.4225
MEAN_ANOMALY   = 327.7164

EPHEMERIS_TYPE = 0
CLASSIFICATION_TYPE = U
NORAD_CAT_ID   = 67573
ELEMENT_SET_NO = 999
REV_AT_EPOCH   = 451
BSTAR          = .93514594E-3
MEAN_MOTION_DOT = .141881E-2
MEAN_MOTION_DDOT = 0

CCSDS_OMM_VERS = 2.0
CREATION_DATE  = 
ORIGINATOR     = 

OBJECT_NAME    = STARLINK-36594
OBJECT_ID      = 2026-016P
CENTER_NAME    = EARTH
REF_FRAME      = TEME
TIME_SYSTEM    = UTC
MEAN_ELEMENT_THEORY = SGP/SGP4

EPOCH          = 2026-02-23T06:00:02.000160
MEAN_MOTION    = 15.75158611
ECCENTRICITY   = .00013328
INCLINATION    = 97.2844
RA_OF_ASC_NODE = 114.0617
ARG_OF_PERICENTER = 112.0019
MEAN_ANOMALY   = 213.3466

EPHEMERIS_TYPE = 0
CLASSIFICATION_TYPE = U
NORAD_CAT_ID   = 67574
ELEMENT_SET_NO = 999
REV_AT_EPOCH   = 577
BSTAR          = -.1172832E-4
MEAN_MOTION_DOT = -.1876E-4
MEAN_MOTION_DDOT = 0

CCSDS_OMM_VERS = 2.0
CREATION_DATE  = 
ORIGINATOR     = 

OBJECT_NAME    = STARLINK-36400
OBJECT_ID      = 2026-016Q
CENTER_NAME    = EARTH
REF_FRAME      = TEME
TIME_SYSTEM    = UTC
MEAN_ELEMENT_THEORY = SGP/SGP4

EPOCH          = 2026-02-23T03:31:49.602432
MEAN_MOTION    = 15.75187969
ECCENTRICITY   = .00019119
INCLINATION    = 97.2854
RA_OF_ASC_NODE = 113.9096
ARG_OF_PERICENTER = 3.8076
MEAN_ANOMALY   = 356.3204

EPHEMERIS_TYPE = 0
CLASSIFICATION_TYPE = U
NORAD_CAT_ID   = 67575
ELEMENT_SET_NO = 999
REV_AT_EPOCH   = 451
BSTAR          = .88746512E-3
MEAN_MOTION_DOT = .134335E-2
MEAN_MOTION_DDOT = 0

CCSDS_OMM_VERS = 2.0
CREATION_DATE  = 
ORIGINATOR     = 

OBJECT_NAME    = STARLINK-36591
OBJECT_ID      = 2026-016R
CENTER_NAME    = EARTH
REF_FRAME      = TEME
TIME_SYSTEM    = UTC
MEAN_ELEMENT_THEORY = SGP/SGP4

EPOCH          = 2026-02-23T03:14:33.052128
MEAN_MOTION    = 15.75334025
ECCENTRICITY   = .00025819
INCLINATION    = 97.2851
RA_OF_ASC_NODE = 113.9246
ARG_OF_PERICENTER = 94.1516
MEAN_ANOMALY   = 266.0044

EPHEMERIS_TYPE = 0
CLASSIFICATION_TYPE = U
NORAD_CAT_ID   = 67576
ELEMENT_SET_NO = 999
REV_AT_EPOCH   = 451
BSTAR          = .21229224E-2
MEAN_MOTION_DOT = .331173E-2
MEAN_MOTION_DDOT = 0

CCSDS_OMM_VERS = 2.0
CREATION_DATE  = 
ORIGINATOR     = 

OBJECT_NAME    = STARLINK-36590
OBJECT_ID      = 2026-016S
CENTER_NAME    = EARTH
REF_FRAME      = TEME
TIME_SYSTEM    = UTC
MEAN_ELEMENT_THEORY = SGP/SGP4

EPOCH          = 2026-02-23T03:37:24.993408
MEAN_MOTION    = 15.75218510
ECCENTRICITY   = .00019545
INCLINATION    = 97.2860
RA_OF_ASC_NODE = 113.9030
ARG_OF_PERICENTER = 67.9631
MEAN_ANOMALY   = 292.1842

EPHEMERIS_TYPE = 0
CLASSIFICATION_TYPE = U
NORAD_CAT_ID   = 67577
ELEMENT_SET_NO = 999
REV_AT_EPOCH   = 451
BSTAR          = .58916149E-3
MEAN_MOTION_DOT = .88779E-3
MEAN_MOTION_DDOT = 0

CCSDS_OMM_VERS = 2.0
CREATION_DATE  = 
ORIGINATOR     = 

OBJECT_NAME    = STARLINK-36613
OBJECT_ID      = 2026-016T
CENTER_NAME    = EARTH
REF_FRAME      = TEME
TIME_SYSTEM    = UTC
MEAN_ELEMENT_THEORY = SGP/SGP4

EPOCH          = 2026-02-22T22:09:57.953088
MEAN_MOTION    = 15.80997207
ECCENTRICITY   = .000145
INCLINATION    = 97.2844
RA_OF_ASC_NODE = 113.7541
ARG_OF_PERICENTER = 135.6001
MEAN_ANOMALY   = 224.5384

EPHEMERIS_TYPE = 0
CLASSIFICATION_TYPE = U
NORAD_CAT_ID   = 67578
ELEMENT_SET_NO = 999
REV_AT_EPOCH   = 448
BSTAR          = .20861E-2
MEAN_MOTION_DOT = .422929E-2
MEAN_MOTION_DDOT = 0

CCSDS_OMM_VERS = 2.0
CREATION_DATE  = 
ORIGINATOR     = 

OBJECT_NAME    = STARLINK-36571
OBJECT_ID      = 2026-016U
CENTER_NAME    = EARTH
REF_FRAME      = TEME
TIME_SYSTEM    = UTC
MEAN_ELEMENT_THEORY = SGP/SGP4

EPOCH          = 2026-02-23T03:43:00.292800
MEAN_MOTION    = 15.75186854
ECCENTRICITY   = .00021712
INCLINATION    = 97.2848
RA_OF_ASC_NODE = 113.8992
ARG_OF_PERICENTER = 11.9750
MEAN_ANOMALY   = 348.1567

EPHEMERIS_TYPE = 0
CLASSIFICATION_TYPE = U
NORAD_CAT_ID   = 67579
ELEMENT_SET_NO = 999
REV_AT_EPOCH   = 451
BSTAR          = .78130391E-3
MEAN_MOTION_DOT = .11802E-2
MEAN_MOTION_DDOT = 0

CCSDS_OMM_VERS = 2.0
CREATION_DATE  = 
ORIGINATOR     = 

OBJECT_NAME    = STARLINK-36612
OBJECT_ID      = 2026-016V
CENTER_NAME    = EARTH
REF_FRAME      = TEME
TIME_SYSTEM    = UTC
MEAN_ELEMENT_THEORY = SGP/SGP4

EPOCH          = 2026-02-20T03:15:29.594016
MEAN_MOTION    = 15.80855073
ECCENTRICITY   = .00016227
INCLINATION    = 97.2829
RA_OF_ASC_NODE = 110.8096
ARG_OF_PERICENTER = 91.3110
MEAN_ANOMALY   = 268.8344

EPHEMERIS_TYPE = 0
CLASSIFICATION_TYPE = U
NORAD_CAT_ID   = 67580
ELEMENT_SET_NO = 999
REV_AT_EPOCH   = 404
BSTAR          = .43353183E-3
MEAN_MOTION_DOT = .83853E-3
MEAN_MOTION_DDOT = 0

CCSDS_OMM_VERS = 2.0
CREATION_DATE  = 
ORIGINATOR     = 

OBJECT_NAME    = STARLINK-36632
OBJECT_ID      = 2026-016W
CENTER_NAME    = EARTH
REF_FRAME      = TEME
TIME_SYSTEM    = UTC
MEAN_ELEMENT_THEORY = SGP/SGP4

EPOCH          = 2026-02-23T03:25:43.504032
MEAN_MOTION    = 15.75258743
ECCENTRICITY   = .00019278
INCLINATION    = 97.2846
RA_OF_ASC_NODE = 113.9151
ARG_OF_PERICENTER = 92.8846
MEAN_ANOMALY   = 267.2640

EPHEMERIS_TYPE = 0
CLASSIFICATION_TYPE = U
NORAD_CAT_ID   = 67581
ELEMENT_SET_NO = 999
REV_AT_EPOCH   = 451
BSTAR          = .12323021E-2
MEAN_MOTION_DOT = .188349E-2
MEAN_MOTION_DDOT = 0

CCSDS_OMM_VERS = 2.0
CREATION_DATE  = 
ORIGINATOR     = 

OBJECT_NAME    = STARLINK-36609
OBJECT_ID      = 2026-016X
CENTER_NAME    = EARTH
REF_FRAME      = TEME
TIME_SYSTEM    = UTC
MEAN_ELEMENT_THEORY = SGP/SGP4

EPOCH          = 2026-02-23T03:48:35.742528
MEAN_MOTION    = 15.75189817
ECCENTRICITY   = .00031365
INCLINATION    = 97.2843
RA_OF_ASC_NODE = 113.8939
ARG_OF_PERICENTER = 358.7514
MEAN_ANOMALY   = 1.3743

EPHEMERIS_TYPE = 0
CLASSIFICATION_TYPE = U
NORAD_CAT_ID   = 67582
ELEMENT_SET_NO = 999
REV_AT_EPOCH   = 451
BSTAR          = .88877306E-3
MEAN_MOTION_DOT = .134566E-2
MEAN_MOTION_DDOT = 0

CCSDS_OMM_VERS = 2.0
CREATION_DATE  = 
ORIGINATOR     = 

OBJECT_NAME    = STARLINK-36577
OBJECT_ID      = 2026-016Y
CENTER_NAME    = EARTH
REF_FRAME      = TEME
TIME_SYSTEM    = UTC
MEAN_ELEMENT_THEORY = SGP/SGP4

EPOCH          = 2026-02-23T06:00:02.000160
MEAN_MOTION    = 15.75165090
ECCENTRICITY   = .00014227
INCLINATION    = 97.2840
RA_OF_ASC_NODE = 114.1000
ARG_OF_PERICENTER = 76.4613
MEAN_ANOMALY   = 338.8847

EPHEMERIS_TYPE = 0
CLASSIFICATION_TYPE = U
NORAD_CAT_ID   = 67583
ELEMENT_SET_NO = 999
REV_AT_EPOCH   = 573
BSTAR          = -.20832658E-3
MEAN_MOTION_DOT = -.31057E-3
MEAN_MOTION_DDOT = 0

CCSDS_OMM_VERS = 2.0
CREATION_DATE  = 
ORIGINATOR     = 

OBJECT_NAME    = STARLINK-36419
OBJECT_ID      = 2026-016Z
CENTER_NAME    = EARTH
REF_FRAME      = TEME
TIME_SYSTEM    = UTC
MEAN_ELEMENT_THEORY = SGP/SGP4

EPOCH          = 2026-02-23T03:02:51.548928
MEAN_MOTION    = 15.75201830
ECCENTRICITY   = .00020399
INCLINATION    = 97.2841
RA_OF_ASC_NODE = 113.9376
ARG_OF_PERICENTER = 7.4336
MEAN_ANOMALY   = 352.6959

EPHEMERIS_TYPE = 0
CLASSIFICATION_TYPE = U
NORAD_CAT_ID   = 67584
ELEMENT_SET_NO = 999
REV_AT_EPOCH   = 451
BSTAR          = .10457452E-2
MEAN_MOTION_DOT = .158871E-2
MEAN_MOTION_DDOT = 0

