STARLINK-36588          
1 67573U 26016N   26054.16474926  .00141881  00000+0  93515-3 0  9997
2 67573  97.2845 113.8849 0002013  32.4225 327.7164 15.75219779  4516
STARLINK-36594          
1 67574U 26016P   26054.25002315 -.00001876  00000+0 -11728-4 0  9995
2 67574  97.2844 114.0617 0001332 112.0019 213.3466 15.75158611  5772
STARLINK-36400          
1 67575U 26016Q   26054.14710188  .00134335  00000+0  88747-3 0  9997
2 67575  97.2854 113.9096 0001911   3.8076 356.3204 15.75187969  4513
STARLINK-36591          
1 67576U 26016R   26054.13510477  .00331173  00000+0  21229-2 0  9996
2 67576  97.2851 113.9246 0002581  94.1516 266.0044 15.75334025  4510
STARLINK-36590          
1 67577U 26016S   26054.15098372  .00088779  00000+0  58916-3 0  9999
2 67577  97.2860 113.9030 0001954  67.9631 292.1842 15.75218510  4517
STARLINK-36613          
1 67578U 26016T   26053.92358742  .00422929  00000+0  20861-2 0  9990
2 67578  97.2844 113.7541 0001450 135.6001 224.5384 15.80997207  4489
STARLINK-36571          
1 67579U 26016U   26054.15486450  .00118020  00000+0  78130-3 0  9992
2 67579  97.2848 113.8992 0002171  11.9750 348.1567 15.75186854  4515
STARLINK-36612          
1 67580U 26016V   26051.13575919  .00083853  00000+0  43353-3 0  9992
2 67580  97.2829 110.8096 0001622  91.3110 268.8344 15.80855073  4041
STARLINK-36632          
1 67581U 26016W   26054.14286463  .00188349  00000+0  12323-2 0  9998
2 67581  97.2846 113.9151 0001927  92.8846 267.2640 15.75258743  4516
STARLINK-36609          
1 67582U 26016X   26054.15874702  .00134566  00000+0  88877-3 0  9999
2 67582  97.2843 113.8939 0003136 358.7514   1.3743 15.75189817  4513
STARLINK-36577          
1 67583U 26016Y   26054.25002315 -.00031057  00000+0 -20833-3 0  9995
2 67583  97.2840 114.1000 0001422  76.4613 338.8847 15.75165090  5739
STARLINK-36419          
1 67584U 26016Z   26054.12698552  .00158871  00000+0  10457-2 0  9998
2 67584  97.2841 113.9376 0002039   7.4336 352.6959 15.75201830  4511
